SHIELDS 1               
1 43850U 18104B   22274.22670564  .00004764  00000+0  19335-3 0  9997
2 43850  85.0307 342.0097 0012098 229.1255 130.8941 15.24260411210618
STF-1                   
1 43852U 18104D   22274.46072220  .00013176  00000+0  47236-3 0  9998
2 43852  85.0325 341.8143 0010560 239.2645 120.7561 15.28543349210722
ZACUBE-2                
1 43907U 18111AH  22274.63022663  .00009319  00000+0  32931-3 0  9992
2 43907  97.1729 157.1671 0021129  64.1686 350.4233 15.29188316209515
LUME 1                  
1 43908U 18111AJ  22274.57204534  .00014454  00000+0  46406-3 0  9993
2 43908  97.1737 159.0730 0019531  58.4455 301.8691 15.32212196209635
AOBA VELOX-IV           
1 43940U 19003J   22274.08296526  .00043705  00000+0  99982-3 0  9996
2 43940  97.1173 307.1182 0017635 120.3285 239.9710 15.42521160206382
MOVE-IIB                
1 44398U 19038N   22274.57235800  .00016779  00000+0  75799-3 0  9995
2 44398  97.6401 245.0919 0022271 114.6791 245.6769 15.20812743179155
SONATE                  
1 44400U 19038Q   22274.59442578  .00005849  00000+0  31036-3 0  9995
2 44400  97.6497 243.6960 0024679 123.8173 236.5421 15.15480090179002
LUCKY-7                 
1 44406U 19038W   22274.45700788  .00008553  00000+0  43818-3 0  9992
2 44406  97.6513 244.1979 0023994 122.0857 238.2710 15.16587926179021
BEESAT 9                
1 44412U 19038AC  22274.47879395  .00011748  00000+0  57164-3 0  9991
2 44412  97.6476 244.7056 0021458 124.2307 236.0964 15.18347724178775
JAISAT-1                
1 44419U 19038F   22274.43149425  .00010747  00000+0  51651-3 0  9991
2 44419  97.6479 245.5767 0020584 121.3617 238.9634 15.18818135179139
DUCHIFAT-3              
1 44854U 19089C   22274.48171094  .00004711  00000+0  36098-3 0  9994
2 44854  36.9649 191.4811 0008680 353.4830 176.1420 15.01713014153875
EYESAT-NANO             
1 44877U 19092E   22274.46203861  .00014799  00000+0  60396-3 0  9994
2 44877  97.4650  98.2404 0010799 350.8647   9.2392 15.24464882154503
ORBITAL FACTORY 2 (OF-2)
1 45113U 19071C   22274.31596990  .00043554  00000+0  74286-3 0  9991
2 45113  51.6358 256.5678 0007138 187.1159 172.9730 15.50878406149775
M2 PATHFINDER           
1 45727U 20037E   22274.44033664  .00002029  00000+0  20399-3 0  9992
2 45727  97.7399  88.0283 0013335  45.8577 314.3796 14.92276733122632
NETSAT-4                
1 46504U 20068U   22274.38338934  .00004572  00000+0  33541-3 0  9999
2 46504  97.7281 214.0322 0011867 334.2406  25.8227 15.03946966109964
NETSAT-3                
1 46505U 20068V   22274.40185935  .00002857  00000+0  21169-3 0  9991
2 46505  97.7295 213.9552 0011075 346.3391  13.7533 15.03890856109974
NETSAT-1                
1 46506U 20068W   22274.55544498  .00003691  00000+0  27258-3 0  9993
2 46506  97.7296 214.0277 0009481   0.2858 359.8378 15.03841568109993
NETSAT-2                
1 46507U 20068X   22274.56627909  .00004021  00000+0  29666-3 0  9997
2 46507  97.7285 214.0284 0008591   5.5215 354.6103 15.03831078109945
SAI-1 NANOCONNECT-2     
1 47701U 21015C   22274.17775659  .00016046  00000+0  56312-3 0  9998
2 47701  97.4150 350.6963 0011926  82.6020 277.6575 15.29435329 88363
WILDTRACKCUBE-SIMBA     
1 47941U 21022K   22274.51870622  .00004076  00000+0  26852-3 0  9992
2 47941  97.5177 171.7509 0021903 139.6871 323.7633 15.07865873 83977
BEESAT-6                
1 47957U 21022AB  22273.95473675  .00007014  00000+0  43599-3 0  9995
2 47957  97.5144 171.5111 0021128 141.5320 274.4149 15.09767591 83711
SMOG-1                  
1 47964U 21022AJ  22274.29287335  .00009069  00000+0  54030-3 0  9991
2 47964  97.5163 173.1264 0019461 128.4004 231.8978 15.11256539 82867
MMSATS-1                
1 47976U 98067SJ  22274.52443793  .00037187  00000+0  38882-3 0  9994
2 47976  51.6397 150.4494 0001800  99.1862 328.1830 15.64081317 86833
BCCSAT-1                
1 48041U 21022AK  22274.20814021  .00009326  00000+0  57114-3 0  9999
2 48041  97.5170 172.5283 0016120 126.7915 233.4797 15.10298163 82794
BEESAT-5                
1 48083U 21022AM  22274.65902622  .00009919  00000+0  60991-3 0  9994
2 48083  97.5116 172.2155 0020711 138.8327 251.6575 15.10061789 82953
BEESAT-7                
1 48084U 21022AN  22273.94544042  .00007977  00000+0  49382-3 0  9997
2 48084  97.5147 171.5175 0020456 141.6728 275.2164 15.09885601 82439
BEESAT-8                
1 48085U 21022AP  22273.95312561  .00005924  00000+0  36985-3 0  9993
2 48085  97.5151 171.5091 0020770 140.9475 275.0399 15.09679793 82994
RAMSAT                  
1 48850U 98067SL  22274.31468722  .00527961  13455-3  95208-3 0  9993
2 48850  51.6292 128.7196 0006264 231.6110 128.4338 16.00974834 74077
LEDSAT                  
1 49069U 21073D   22274.14773075  .00005786  00000+0  36346-3 0  9992
2 49069  97.5150 344.9439 0025300 293.3265  66.5302 15.09381602 61771
BINAR-1                 
1 49272U 98067SR  22273.53712133  .09259409  12338-4  77110-3 0  9993
2 49272  51.6113 133.8495 0008718 259.8641 100.1402 16.38718671 56327
HSU-SAT1                
1 53462U 98067UB  22274.10403246  .00048059  00000+0  72809-3 0  9991
2 53462  51.6390 171.0226 0005026 310.8144  49.2410 15.54146066  7734
FUTABA                  
1 53463U 98067UC  22273.96615103  .00064038  00000+0  94389-3 0  9994
2 53463  51.6385 171.6020 0004807 306.8764  53.1786 15.54776695  7711
TUMNANOSAT              
1 53464U 98067UD  22274.40686153  .00059323  00000+0  85399-3 0  9990
2 53464  51.6382 169.2957 0004652 304.9015  55.1538 15.55453880  7780
BEIJING 1               
1 28890U 05043A   22274.59450058  .00000301  00000+0  70148-4 0  9999
2 28890  98.1313  35.1190 0014927 197.2804 162.7889 14.61499440902641
HJ-1A                   
1 33320U 08041A   22274.58274338  .00000393  00000+0  61182-4 0  9997
2 33320  97.6707 302.6302 0019617 245.5783 114.3390 14.77924478758063
HJ-1B                   
1 33321U 08041B   22274.53404535  .00000896  00000+0  13039-3 0  9992
2 33321  97.6867 306.3623 0032772 265.5917  94.1568 14.77895542758056
YAOGAN 4                
1 33446U 08061A   22274.43746423  .00000791  00000+0  11776-3 0  9996
2 33446  97.8230 211.3732 0016936 146.5505 213.6779 14.77481596745240
DEIMOS-1                
1 35681U 09041A   22274.56876331  .00000339  00000+0  61216-4 0  9997
2 35681  97.7027 120.1442 0000490 164.6947 195.4280 14.72118496707388
UK-DMC 2                
1 35683U 09041C   22274.50375808  .00000556  00000+0  96966-4 0  9997
2 35683  97.7065  81.8942 0001015  67.4112 292.7213 14.71506907707102
RISAT 1                 
1 38248U 12017A   22274.53479955  .00004068  00000+0  23717-3 0  9990
2 38248  97.5533 284.7743 0002289 241.4072 118.6928 15.12534259574856
DMC3-FM1                
1 40715U 15032A   22274.59269062  .00000467  00000+0  65074-4 0  9996
2 40715  97.8304 159.2453 0006155 160.4959 199.6495 14.82204140389010
DMC3-FM2                
1 40716U 15032B   22274.54823024  .00000469  00000+0  65378-4 0  9995
2 40716  97.8341 159.8969 0007950 166.6147 193.5282 14.82196771389018
DMC3-FM3                
1 40717U 15032C   22274.56933348  .00000474  00000+0  65905-4 0  9991
2 40717  97.8378 160.8758 0009975 166.3860 193.7624 14.82224378389012
NOAA 15                 
1 25338U 98030A   22274.56935808  .00000138  00000+0  75789-4 0  9993
2 25338  98.6373 302.6835 0010125 354.6275   5.4795 14.26175810268143
DMSP 5D-3 F15 (USA 147) 
1 25991U 99067A   22274.57510851  .00000137  00000+0  91877-4 0  9992
2 25991  99.0613 268.0048 0009129 246.1116 223.6473 14.16575119178795
METEOSAT-8 (MSG-1)      
1 27509U 02040B   22274.48574691  .00000135  00000+0  00000+0 0  9997
2 27509   8.2318  50.0476 0002580 129.9086  46.5210  1.00273307 73673
DMSP 5D-3 F16 (USA 172) 
1 28054U 03048A   22274.62888316  .00000144  00000+0  10005-3 0  9990
2 28054  98.9976 266.0275 0007857  24.6175  85.6727 14.13687465978025
NOAA 18                 
1 28654U 05018A   22274.51107497  .00000201  00000+0  13241-3 0  9996
2 28654  98.9402 344.8199 0014678  35.7106 324.5045 14.12782656894955
METEOSAT-9 (MSG-2)      
1 28912U 05049B   22274.48653171  .00000128  00000+0  00000+0 0  9991
2 28912   6.2539  65.5741 0001914 184.3901 341.0682  1.00273513 61450
EWS-G1 (GOES 13)        
1 29155U 06018A   22274.53243765  .00000035  00000+0  00000+0 0  9995
2 29155   0.8458  95.3612 0006127 115.7584  52.4206  1.00269037 29796
DMSP 5D-3 F17 (USA 191) 
1 29522U 06050A   22274.56462568  .00000150  00000+0  10185-3 0  9993
2 29522  98.7664 287.6278 0009142 324.7320  35.3247 14.14117685820900
FENGYUN 3A              
1 32958U 08026A   22274.46745565  .00000142  00000+0  88411-4 0  9994
2 32958  98.5153 232.8245 0009890  78.0847 282.1438 14.18743163743253
FENGYUN 2E              
1 33463U 08066A   22274.49464134 -.00000204  00000+0  00000+0 0  9996
2 33463   6.1361  64.6535 0000946  39.8536 170.3644  1.00274293 50503
NOAA 19                 
1 33591U 09005A   22274.59520188  .00000172  00000+0  11818-3 0  9991
2 33591  99.1391 310.9194 0013026 248.3748 111.6036 14.12615320703430
GOES 14                 
1 35491U 09033A   22274.60834983 -.00000095  00000+0  00000+0 0  9998
2 35491   0.3617 267.1053 0017790 306.5837 271.2716  1.00272527 48577
METEOR-M 1              
1 35865U 09049A   22274.47804328  .00000135  00000+0  79809-4 0  9997
2 35865  98.5415 241.5881 0001175 291.5747  68.5306 14.22360218676612
DMSP 5D-3 F18 (USA 210) 
1 35951U 09057A   22274.58084566  .00000232  00000+0  14575-3 0  9994
2 35951  98.7344 251.4076 0011696 139.5809 220.6235 14.13561473668109
GOES 15                 
1 36411U 10008A   22274.57998503  .00000053  00000+0  00000+0 0  9993
2 36411   0.3221 277.8354 0004376 247.6465 285.4832  1.00265238 46082
COMS 1                  
1 36744U 10032A   22274.55411468 -.00000346  00000+0  00000+0 0  9993
2 36744   1.3462  91.9295 0000893  81.8955 164.0865  1.00272526 45074
